[{"OBJECT_NAME":"DMSP 5D-3 F16 (USA 172)","OBJECT_ID":"2003-048A","EPOCH":"2026-04-26T13:04:52.715712","MEAN_MOTION":14.14477122,"ECCENTRICITY":0.000599,"INCLINATION":98.9931,"RA_OF_ASC_NODE":140.0228,"ARG_OF_PERICENTER":297.5904,"MEAN_ANOMALY":216.2257,"EPHEMERIS_TYPE":0,"CLASSIFICATION_TYPE":"U","NORAD_CAT_ID":28054,"ELEMENT_SET_NO":999,"REV_AT_EPOCH":16218,"BSTAR":6.7231e-5,"MEAN_MOTION_DOT":8.3e-7,"MEAN_MOTION_DDOT":0},{"OBJECT_NAME":"METEOSAT-9 (MSG-2)","OBJECT_ID":"2005-049B","EPOCH":"2026-04-25T22:22:58.331712","MEAN_MOTION":1.00274462,"ECCENTRICITY":4.974e-5,"INCLINATION":9.2466,"RA_OF_ASC_NODE":54.6723,"ARG_OF_PERICENTER":356.013,"MEAN_ANOMALY":184.6448,"EPHEMERIS_TYPE":0,"CLASSIFICATION_TYPE":"U","NORAD_CAT_ID":28912,"ELEMENT_SET_NO":999,"REV_AT_EPOCH":647,"BSTAR":0,"MEAN_MOTION_DOT":1.16e-6,"MEAN_MOTION_DDOT":0},{"OBJECT_NAME":"DMSP 5D-3 F17 (USA 191)","OBJECT_ID":"2006-050A","EPOCH":"2026-04-26T11:30:29.104128","MEAN_MOTION":14.14982757,"ECCENTRICITY":0.0009653,"INCLINATION":98.7396,"RA_OF_ASC_NODE":124.1055,"ARG_OF_PERICENTER":197.2853,"MEAN_ANOMALY":162.7994,"EPHEMERIS_TYPE":0,"CLASSIFICATION_TYPE":"U","NORAD_CAT_ID":29522,"ELEMENT_SET_NO":999,"REV_AT_EPOCH":511,"BSTAR":8.9678e-5,"MEAN_MOTION_DOT":1.3e-6,"MEAN_MOTION_DDOT":0},{"OBJECT_NAME":"FENGYUN 3A","OBJECT_ID":"2008-026A","EPOCH":"2026-04-26T10:52:31.303776","MEAN_MOTION":14.19559723,"ECCENTRICITY":0.0007583,"INCLINATION":98.6855,"RA_OF_ASC_NODE":58.263,"ARG_OF_PERICENTER":278.9945,"MEAN_ANOMALY":81.0372,"EPHEMERIS_TYPE":0,"CLASSIFICATION_TYPE":"U","NORAD_CAT_ID":32958,"ELEMENT_SET_NO":999,"REV_AT_EPOCH":92806,"BSTAR":5.8445e-5,"MEAN_MOTION_DOT":8.0e-7,"MEAN_MOTION_DDOT":0},{"OBJECT_NAME":"GOES 14","OBJECT_ID":"2009-033A","EPOCH":"2026-04-26T11:52:38.687808","MEAN_MOTION":1.0011657,"ECCENTRICITY":0.0001739,"INCLINATION":1.5586,"RA_OF_ASC_NODE":83.6308,"ARG_OF_PERICENTER":313.0723,"MEAN_ANOMALY":166.7089,"EPHEMERIS_TYPE":0,"CLASSIFICATION_TYPE":"U","NORAD_CAT_ID":35491,"ELEMENT_SET_NO":999,"REV_AT_EPOCH":607,"BSTAR":0,"MEAN_MOTION_DOT":-5.8e-7,"MEAN_MOTION_DDOT":0},{"OBJECT_NAME":"DMSP 5D-3 F18 (USA 210)","OBJECT_ID":"2009-057A","EPOCH":"2026-04-26T10:43:57.222048","MEAN_MOTION":14.14866248,"ECCENTRICITY":0.0011904,"INCLINATION":98.9016,"RA_OF_ASC_NODE":97.3377,"ARG_OF_PERICENTER":42.5497,"MEAN_ANOMALY":317.6596,"EPHEMERIS_TYPE":0,"CLASSIFICATION_TYPE":"U","NORAD_CAT_ID":35951,"ELEMENT_SET_NO":999,"REV_AT_EPOCH":85227,"BSTAR":0.00016744,"MEAN_MOTION_DOT":2.79e-6,"MEAN_MOTION_DDOT":0},{"OBJECT_NAME":"EWS-G2 (GOES 15)","OBJECT_ID":"2010-008A","EPOCH":"2026-04-26T12:09:25.621920","MEAN_MOTION":1.00272457,"ECCENTRICITY":0.0003975,"INCLINATION":1.1417,"RA_OF_ASC_NODE":83.7896,"ARG_OF_PERICENTER":23.7725,"MEAN_ANOMALY":352.5592,"EPHEMERIS_TYPE":0,"CLASSIFICATION_TYPE":"U","NORAD_CAT_ID":36411,"ELEMENT_SET_NO":999,"REV_AT_EPOCH":5912,"BSTAR":0,"MEAN_MOTION_DOT":1.1e-7,"MEAN_MOTION_DDOT":0},{"OBJECT_NAME":"COMS 1","OBJECT_ID":"2010-032A","EPOCH":"2026-04-26T09:02:32.578080","MEAN_MOTION":1.00272579,"ECCENTRICITY":0.000105,"INCLINATION":4.6739,"RA_OF_ASC_NODE":76.0456,"ARG_OF_PERICENTER":308.9312,"MEAN_ANOMALY":93.1775,"EPHEMERIS_TYPE":0,"CLASSIFICATION_TYPE":"U","NORAD_CAT_ID":36744,"ELEMENT_SET_NO":999,"REV_AT_EPOCH":5057,"BSTAR":0,"MEAN_MOTION_DOT":-3.53e-6,"MEAN_MOTION_DDOT":0},{"OBJECT_NAME":"FENGYUN 3B","OBJECT_ID":"2010-059A","EPOCH":"2026-04-26T13:22:17.792832","MEAN_MOTION":14.14831055,"ECCENTRICITY":0.0021665,"INCLINATION":98.9674,"RA_OF_ASC_NODE":162.3416,"ARG_OF_PERICENTER":335.8658,"MEAN_ANOMALY":185.2567,"EPHEMERIS_TYPE":0,"CLASSIFICATION_TYPE":"U","NORAD_CAT_ID":37214,"ELEMENT_SET_NO":999,"REV_AT_EPOCH":80012,"BSTAR":0.00025357,"MEAN_MOTION_DOT":4.45e-6,"MEAN_MOTION_DDOT":0},{"OBJECT_NAME":"SUOMI NPP","OBJECT_ID":"2011-061A","EPOCH":"2026-04-26T12:47:37.612608","MEAN_MOTION":14.19505962,"ECCENTRICITY":0.0002764,"INCLINATION":98.7925,"RA_OF_ASC_NODE":57.7709,"ARG_OF_PERICENTER":102.8103,"MEAN_ANOMALY":257.3382,"EPHEMERIS_TYPE":0,"CLASSIFICATION_TYPE":"U","NORAD_CAT_ID":37849,"ELEMENT_SET_NO":999,"REV_AT_EPOCH":75111,"BSTAR":5.8305e-5,"MEAN_MOTION_DOT":7.9e-7,"MEAN_MOTION_DDOT":0},{"OBJECT_NAME":"METEOSAT-10 (MSG-3)","OBJECT_ID":"2012-035B","EPOCH":"2026-04-26T05:00:40.948128","MEAN_MOTION":1.00267862,"ECCENTRICITY":0.0002074,"INCLINATION":4.5512,"RA_OF_ASC_NODE":61.239,"ARG_OF_PERICENTER":311.7157,"MEAN_ANOMALY":276.6159,"EPHEMERIS_TYPE":0,"CLASSIFICATION_TYPE":"U","NORAD_CAT_ID":38552,"ELEMENT_SET_NO":999,"REV_AT_EPOCH":5033,"BSTAR":0,"MEAN_MOTION_DOT":-1.6e-7,"MEAN_MOTION_DDOT":0},{"OBJECT_NAME":"METOP-B","OBJECT_ID":"2012-049A","EPOCH":"2026-04-26T10:50:38.713344","MEAN_MOTION":14.21433153,"ECCENTRICITY":0.0003399,"INCLINATION":98.6549,"RA_OF_ASC_NODE":168.9722,"ARG_OF_PERICENTER":124.0628,"MEAN_ANOMALY":236.0873,"EPHEMERIS_TYPE":0,"CLASSIFICATION_TYPE":"U","NORAD_CAT_ID":38771,"ELEMENT_SET_NO":999,"REV_AT_EPOCH":70591,"BSTAR":6.7034e-5,"MEAN_MOTION_DOT":1.03e-6,"MEAN_MOTION_DDOT":0},{"OBJECT_NAME":"INSAT-3D","OBJECT_ID":"2013-038B","EPOCH":"2026-04-26T09:02:55.042080","MEAN_MOTION":1.00272106,"ECCENTRICITY":0.0001509,"INCLINATION":1.794,"RA_OF_ASC_NODE":83.1599,"ARG_OF_PERICENTER":280.9198,"MEAN_ANOMALY":115.5536,"EPHEMERIS_TYPE":0,"CLASSIFICATION_TYPE":"U","NORAD_CAT_ID":39216,"ELEMENT_SET_NO":999,"REV_AT_EPOCH":4656,"BSTAR":0,"MEAN_MOTION_DOT":-3.5e-6,"MEAN_MOTION_DDOT":0},{"OBJECT_NAME":"FENGYUN 3C","OBJECT_ID":"2013-052A","EPOCH":"2026-04-26T12:32:26.198880","MEAN_MOTION":14.15742603,"ECCENTRICITY":0.0014821,"INCLINATION":98.4956,"RA_OF_ASC_NODE":92.7803,"ARG_OF_PERICENTER":167.5612,"MEAN_ANOMALY":192.5932,"EPHEMERIS_TYPE":0,"CLASSIFICATION_TYPE":"U","NORAD_CAT_ID":39260,"ELEMENT_SET_NO":999,"REV_AT_EPOCH":65125,"BSTAR":7.0967e-5,"MEAN_MOTION_DOT":9.8e-7,"MEAN_MOTION_DDOT":0},{"OBJECT_NAME":"METEOR-M 2","OBJECT_ID":"2014-037A","EPOCH":"2026-04-26T13:11:08.462400","MEAN_MOTION":14.21447287,"ECCENTRICITY":0.0005563,"INCLINATION":98.5086,"RA_OF_ASC_NODE":94.1269,"ARG_OF_PERICENTER":175.1224,"MEAN_ANOMALY":185.0009,"EPHEMERIS_TYPE":0,"CLASSIFICATION_TYPE":"U","NORAD_CAT_ID":40069,"ELEMENT_SET_NO":999,"REV_AT_EPOCH":61198,"BSTAR":0.00017752,"MEAN_MOTION_DOT":3.46e-6,"MEAN_MOTION_DDOT":0},{"OBJECT_NAME":"HIMAWARI-8","OBJECT_ID":"2014-060A","EPOCH":"2026-04-26T12:24:38.521728","MEAN_MOTION":1.00268561,"ECCENTRICITY":9.08e-5,"INCLINATION":0.0242,"RA_OF_ASC_NODE":102.5212,"ARG_OF_PERICENTER":293.5739,"MEAN_ANOMALY":145.2567,"EPHEMERIS_TYPE":0,"CLASSIFICATION_TYPE":"U","NORAD_CAT_ID":40267,"ELEMENT_SET_NO":999,"REV_AT_EPOCH":4224,"BSTAR":0,"MEAN_MOTION_DOT":0,"MEAN_MOTION_DDOT":0},{"OBJECT_NAME":"FENGYUN 2G","OBJECT_ID":"2014-090A","EPOCH":"2026-04-25T20:55:44.198976","MEAN_MOTION":1.00272778,"ECCENTRICITY":0.00029687,"INCLINATION":5.5091,"RA_OF_ASC_NODE":73.4313,"ARG_OF_PERICENTER":146.1556,"MEAN_ANOMALY":48.0199,"EPHEMERIS_TYPE":0,"CLASSIFICATION_TYPE":"U","NORAD_CAT_ID":40367,"ELEMENT_SET_NO":999,"REV_AT_EPOCH":4147,"BSTAR":0,"MEAN_MOTION_DOT":-3.13e-6,"MEAN_MOTION_DDOT":0}]
