DMSP 5D-3 F16 (USA 172) 
1 28054U 03048A   26116.54505458  .00000083  00000+0  67231-4 0  9999
2 28054  98.9931 140.0228 0005990 297.5904 216.2257 14.14477122162182
METEOSAT-9 (MSG-2)      
1 28912U 05049B   26115.93261958  .00000116  00000+0  00000+0 0  9994
2 28912   9.2466  54.6723 0000497 356.0130 184.6448  1.00274462  6474
DMSP 5D-3 F17 (USA 191) 
1 29522U 06050A   26116.47950352  .00000130  00000+0  89678-4 0  9997
2 29522  98.7396 124.1055 0009653 197.2853 162.7994 14.14982757  5113
FENGYUN 3A              
1 32958U 08026A   26116.45314009  .00000080  00000+0  58445-4 0  9992
2 32958  98.6855  58.2630 0007583 278.9945  81.0372 14.19559723928063
GOES 14                 
1 35491U 09033A   26116.49489222 -.00000058  00000+0  00000+0 0  9995
2 35491   1.5586  83.6308 0001739 313.0723 166.7089  1.00116570  6077
DMSP 5D-3 F18 (USA 210) 
1 35951U 09057A   26116.44719007  .00000279  00000+0  16744-3 0  9994
2 35951  98.9016  97.3377 0011904  42.5497 317.6596 14.14866248852275
EWS-G2 (GOES 15)        
1 36411U 10008A   26116.50654655  .00000011  00000+0  00000+0 0  9996
2 36411   1.1417  83.7896 0003975  23.7725 352.5592  1.00272457 59128
COMS 1                  
1 36744U 10032A   26116.37676595 -.00000353  00000+0  00000+0 0  9994
2 36744   4.6739  76.0456 0001050 308.9312  93.1775  1.00272579 50577
FENGYUN 3B              
1 37214U 10059A   26116.55715038  .00000445  00000+0  25357-3 0  9999
2 37214  98.9674 162.3416 0021665 335.8658 185.2567 14.14831055800120
SUOMI NPP               
1 37849U 11061A   26116.53307422  .00000079  00000+0  58305-4 0  9992
2 37849  98.7925  57.7709 0002764 102.8103 257.3382 14.19505962751119
METEOSAT-10 (MSG-3)     
1 38552U 12035B   26116.20880727 -.00000016  00000+0  00000+0 0  9990
2 38552   4.5512  61.2390 0002074 311.7157 276.6159  1.00267862 50330
METOP-B                 
1 38771U 12049A   26116.45183696  .00000103  00000+0  67034-4 0  9997
2 38771  98.6549 168.9722 0003399 124.0628 236.0873 14.21433153705919
INSAT-3D                
1 39216U 13038B   26116.37702595 -.00000350  00000+0  00000+0 0  9997
2 39216   1.7940  83.1599 0001509 280.9198 115.5536  1.00272106 46567
FENGYUN 3C              
1 39260U 13052A   26116.52252545  .00000098  00000+0  70967-4 0  9996
2 39260  98.4956  92.7803 0014821 167.5612 192.5932 14.15742603651259
METEOR-M 2              
1 40069U 14037A   26116.54940350  .00000346  00000+0  17752-3 0  9997
2 40069  98.5086  94.1269 0005563 175.1224 185.0009 14.21447287611987
HIMAWARI-8              
1 40267U 14060A   26116.51711252  .00000000  00000+0  00000+0 0  9998
2 40267   0.0242 102.5212 0000908 293.5739 145.2567  1.00268561 42248
FENGYUN 2G              
1 40367U 14090A   26115.87203934 -.00000313  00000+0  00000+0 0  9991
2 40367   5.5091  73.4313 0002968 146.1556  48.0199  1.00272778 41477
